STARLINK-3500           
1 51740U 22016AC  25173.04161139 -.00000357  00000+0 -43584-5 0  9996
2 51740  53.2188  49.2133 0001439  82.5891 277.5264 15.08835147185276
STARLINK-3520           
1 51741U 22016AD  25172.92112931 -.00000018  00000+0  16975-4 0  9995
2 51741  53.2191  49.7644 0001392  89.2472 270.8679 15.08833654184197
STARLINK-3521           
1 51742U 22016AE  25173.05634676  .00000708  00000+0  62568-4 0  9990
2 51742  53.2172  49.3422 0001392  79.5476 280.5673 15.08842981185346
STARLINK-3512           
1 51743U 22016AF  25172.92475463 -.00003729  00000+0 -21625-3 0  9999
2 51743  53.2182  39.6608 0001502  91.1638 268.9526 15.08852364185476
STARLINK-3452           
1 51744U 22016AG  25172.37185344  .00000351  00000+0  40169-4 0  9996
2 51744  53.2193  52.2493 0001498  94.3039 265.8124 15.08834988184118
STARLINK-3449           
1 51745U 22016AH  25172.91280601  .00000664  00000+0  59776-4 0  9990
2 51745  53.2181  49.7923 0001333  88.8501 271.2644 15.08840791184190
STARLINK-3502           
1 51746U 22016AJ  25172.92940856 -.00000508  00000+0 -13830-4 0  9997
2 51746  53.2196  39.7283 0001429  90.6485 269.4671 15.08834709184330
STARLINK-3446           
1 51747U 22016AK  25172.37648889  .00000194  00000+0  30269-4 0  9992
2 51747  53.2190  52.2481 0001305  90.3963 269.7179 15.08837716184119
STARLINK-3501           
1 51748U 22016AL  25173.05356923 -.00000901  00000+0 -38514-4 0  9993
2 51748  53.2177  39.1613 0001315  92.1456 267.9687 15.08833822185427
STARLINK-3451           
1 51749U 22016AM  25173.08210812  .00001020  00000+0  82177-4 0  9998
2 51749  53.2181  49.2150 0001342  92.7617 267.3529 15.08837562185329
STARLINK-3505           
1 51750U 22016AN  25172.91468632 -.00000057  00000+0  14492-4 0  9991
2 51750  53.2177  39.7951 0001535  93.6800 266.4368 15.08836084184336
STARLINK-3506           
1 51751U 22016AP  25172.92572438  .00000026  00000+0  19722-4 0  9999
2 51751  53.2164  39.7451 0001524  95.5088 264.6078 15.08837571184335
STARLINK-3511           
1 51752U 22016AQ  25172.96987574 -.00000618  00000+0 -20707-4 0  9999
2 51752  53.2187  39.4666 0001551  95.3808 264.7361 15.08836511185468
STARLINK-3507           
1 51753U 22016AR  25172.91836728 -.00000104  00000+0  11550-4 0  9994
2 51753  53.2188  39.7777 0001446  90.6721 269.4437 15.08835761185407
STARLINK-3457           
1 51754U 22016AS  25172.61561732  .00000581  00000+0  54596-4 0  9997
2 51754  53.2196  40.8860 0001387  89.9188 270.1963 15.08839357185414
STARLINK-3460           
1 51755U 22016AT  25172.97260696  .00000192  00000+0  30164-4 0  9995
2 51755  53.2180  39.5260 0001387  86.8729 273.2422 15.08837102185469
STARLINK-3513           
1 51756U 22016AU  25172.61196914  .00000270  00000+0  35058-4 0  9992
2 51756  53.2185  41.1436 0001320  99.0265 261.0877 15.08834561185361
STARLINK-3459           
1 51757U 22016AV  25173.00669287  .00005355  00000+0  35443-3 0  9991
2 51757  53.2181  39.3800 0001474  89.1690 270.9471 15.08828073185476
STARLINK-3458           
1 51758U 22016AW  25172.60092440 -.00000241  00000+0  29367-5 0  9998
2 51758  53.2183  41.1443 0001406  90.8773 269.2380 15.08833854185438
STARLINK-3456           
1 51759U 22016AX  25172.93580854  .00000198  00000+0  30557-4 0  9998
2 51759  53.2178  39.6888 0001227  96.2107 263.9025 15.08833864184347
STARLINK-3622           
1 51768U 22017A   25173.09865162  .00000386  00000+0  42342-4 0  9999
2 51768  53.2158  68.9600 0001581 101.6855 258.4315 15.08830671184711
STARLINK-3621           
1 51769U 22017B   25172.69384937 -.00000493  00000+0 -12891-4 0  9998
2 51769  53.2202  70.7765 0001791  85.5541 274.5655 15.08835692183207
STARLINK-3612           
1 51770U 22017C   25172.43256280  .00001576  00000+0  11709-3 0  9998
2 51770  53.2181  71.9499 0001243  96.6612 263.4522 15.08835814183178
STARLINK-3614           
1 51771U 22017D   25172.42522087  .00001431  00000+0  10803-3 0  9993
2 51771  53.2175  71.9698 0001287  78.1705 281.9431 15.08829484183168
STARLINK-3623           
1 51772U 22017E   25172.41784554  .00000204  00000+0  30920-4 0  9992
2 51772  53.2183  72.0125 0001310  89.8590 270.2552 15.08837180183159
STARLINK-3624           
1 51773U 22017F   25173.08488255 -.00000081  00000+0  13008-4 0  9998
2 51773  53.2186  68.9905 0001337  73.7023 286.4117 15.08835136184724
STARLINK-3629           
1 51774U 22017G   25173.00664909 -.00000055  00000+0  14631-4 0  9997
2 51774  53.2180  69.3707 0001394  96.2975 263.8176 15.08831969184716
STARLINK-3620           
1 51775U 22017H   25172.75272898  .00000533  00000+0  51555-4 0  9997
2 51775  53.2191  70.5109 0001440  96.5573 263.5583 15.08834669183211
STARLINK-3608           
1 51776U 22017J   25173.00296698 -.00001439  00000+0 -72403-4 0  9994
2 51776  53.2183  69.3859 0001214  78.1720 281.9408 15.08822034184708
STARLINK-3625           
1 51777U 22017K   25173.00760117 -.00000964  00000+0 -42496-4 0  9998
2 51777  53.2178  69.3380 0001361  94.9069 265.2079 15.08837318184718
STARLINK-3615           
1 51778U 22017L   25172.94499166  .00000413  00000+0  44025-4 0  9991
2 51778  53.2193  59.5232 0001536  85.8788 274.2380 15.08838257183193
STARLINK-3611           
1 51779U 22017M   25173.00393192 -.00000536  00000+0 -15605-4 0  9992
2 51779  53.2177  69.4322 0001363  93.8076 266.3072 15.08833143184700
STARLINK-3617           
1 51780U 22017N   25173.12072512 -.00000178  00000+0  69033-5 0  9993
2 51780  53.2161  68.8502 0001412  88.5370 271.5784 15.08839738184772
STARLINK-3580           
1 51781U 22017P   25173.12440264 -.00000245  00000+0  27011-5 0  9992
2 51781  53.2166  68.8041 0001425  90.1297 269.9858 15.08835618184739
STARLINK-3616           
1 51782U 22017Q   25173.02783177  .00001339  00000+0  10221-3 0  9992
2 51782  53.2179  79.4310 0002320  94.3956 265.7302 15.08842934184562
STARLINK-3628           
1 51783U 22017R   25172.99656791  .00000572  00000+0  54027-4 0  9990
2 51783  53.2183  69.4636 0001953  91.7015 268.4201 15.08840666184700
STARLINK-3632           
1 51784U 22017S   25173.00940910  .00004828  00000+0  32131-3 0  9992
2 51784  53.2172  79.3596 0001406  85.3278 274.7874 15.08832976184573
STARLINK-3646           
1 51785U 22017T   25173.11800177  .00003934  00000+0  26511-3 0  9997
2 51785  53.2160  68.8449 0001262  77.3954 282.7179 15.08840656184776
STARLINK-3638           
1 51786U 22017U   25173.00205118 -.00000058  00000+0  14433-4 0  9996
2 51786  53.2184  79.3920 0001629  91.7020 268.4158 15.08846231184611
STARLINK-3619           
1 51787U 22017V   25172.15564172 -.00000414  00000+0 -79459-5 0  9997
2 51787  53.2174  83.1876 0001384  95.4216 264.6934 15.08841662182790
STARLINK-3641           
1 51788U 22017W   25173.12348594  .00000275  00000+0  35382-4 0  9993
2 51788  53.2161  78.8489 0001293  88.6044 271.5096 15.08844831184586
STARLINK-3639           
1 51789U 22017X   25173.00572942 -.00000746  00000+0 -28787-4 0  9993
2 51789  53.2182  79.3752 0001424  82.7350 277.3804 15.08836607184572
STARLINK-3631           
1 51790U 22017Y   25172.45740510  .00000995  00000+0  80608-4 0  9995
2 51790  53.2175  81.8379 0001263  84.1949 275.9187 15.08833906184533
STARLINK-3602           
1 51791U 22017Z   25172.46844847  .00000544  00000+0  52283-4 0  9993
2 51791  53.2178  81.7885 0001463  86.2852 273.8307 15.08836136184489
STARLINK-3626           
1 51792U 22017AA  25173.11244924  .00000578  00000+0  54410-4 0  9998
2 51792  53.2189  78.8993 0001422  98.2608 261.8546 15.08836840184637
STARLINK-3633           
1 51793U 22017AB  25172.46572711  .00000198  00000+0  30561-4 0  9993
2 51793  53.2184  81.8109 0001433  87.7927 272.3229 15.08837392184532
STARLINK-3573           
1 51794U 22017AC  25173.10506246  .00002462  00000+0  17265-3 0  9997
2 51794  53.2173  78.9281 0001310  81.7247 278.3893 15.08856591184582
STARLINK-3586           
1 51795U 22017AD  25172.13359335 -.00001360  00000+0 -67343-4 0  9996
2 51795  53.2175  83.4939 0001642  83.1936 276.9243 15.08843130184437
STARLINK-3634           
1 51798U 22017AG  25173.15660740 -.00000361  00000+0 -45783-5 0  9992
2 51798  53.2184  78.6960 0001651  97.2501 262.8679 15.08835683184637
STARLINK-3637           
1 51799U 22017AH  25172.77020890 -.00000103  00000+0  11643-4 0  9996
2 51799  53.2187  80.4319 0001727  95.0577 265.0612 15.08832329184538
STARLINK-3592           
1 51801U 22017AK  25172.76652770 -.00000284  00000+0  25791-6 0  9998
2 51801  53.2176  80.4475 0001297  93.5787 266.5353 15.08832960184530
STARLINK-3557           
1 51802U 22017AL  25173.25002315  .00079008  00000+0  23219-2 0  9996
2 51802  53.2007  67.8352 0001500 120.4061 186.8778 15.34442814184741
STARLINK-3544           
1 51803U 22017AM  25173.02044998  .00000050  00000+0  21264-4 0  9996
2 51803  53.2199  79.3079 0001784  94.7202 265.3994 15.08841257184560
STARLINK-3601           
1 51804U 22017AN  25173.09956885 -.00001173  00000+0 -55608-4 0  9999
2 51804  53.2183  58.9541 0001452  99.3322 260.7834 15.08835191184918
STARLINK-3605           
1 51805U 22017AP  25173.10325841 -.00000591  00000+0 -19065-4 0  9994
2 51805  53.2180  59.0140 0001368  94.2571 265.8577 15.08834078184901
STARLINK-3606           
1 51807U 22017AR  25172.71960764 -.00000701  00000+0 -25945-4 0  9998
2 51807  53.2178  70.6622 0001415  81.5706 278.5446 15.08838740184711
STARLINK-3609           
1 51808U 22017AS  25172.43992838  .00000729  00000+0  63904-4 0  9990
2 51808  53.2182  71.9163 0001298  86.8320 273.2820 15.08837279184523
STARLINK-3607           
1 51809U 22017AT  25172.44727691 -.00000043  00000+0  15386-4 0  9996
2 51809  53.2182  71.8460 0001479  83.9522 276.1639 15.08844724184620
STARLINK-3613           
1 51810U 22017AU  25172.08759117  .00000528  00000+0  51285-4 0  9991
2 51810  53.2176  63.7189 0001282  81.4102 278.7036 15.08841265184583
